NUSAT-1 (FRESCO)        
1 41557U 16033B   22012.20939227  .00004026  00000+0  13677-3 0  9994
2 41557  97.3908 110.1574 0011317 208.0435 235.5788 15.31009850313450
BEESAT-4                
1 41619U 16040W   22011.56048292  .00004917  00000+0  18719-3 0  9993
2 41619  97.2430  66.6685 0009065 322.4855  37.5751 15.27152962296751
CAS-2T & KS-1Q          
1 41847U 16066G   22012.46010884  .00000180  00000+0  38079-4 0  9990
2 41847  98.5747  77.1581 0363960 316.3908  40.9031 14.38321100271923
NAYIF-1 (EO-88)         
1 42017U 17008BX  22012.13799806  .00005644  00000+0  19647-3 0  9998
2 42017  97.2928  80.9276 0007290  88.0063 272.2012 15.30057049273145
ZHUHAI-1 02 (CAS-4B)    
1 42759U 17034B   22012.19778222  .00001236  00000+0  86458-4 0  9993
2 42759  43.0159 113.1115 0007800  20.2363  59.7621 15.10707774252711
ZHUHAI-1 01 (CAS-4A)    
1 42761U 17034D   22012.17598788  .00001063  00000+0  76056-4 0  9992
2 42761  43.0164 112.1332 0008126  21.1575  55.0058 15.10793447252712
MAX VALIER SAT          
1 42778U 17036P   22011.37065682  .00002836  00000+0  11748-3 0  9990
2 42778  97.2299  57.9556 0012247 154.8805 205.3031 15.24635012252958
RADFXSAT (FOX-1B)       
1 43017U 17073E   22012.00282350  .00002429  00000+0  19021-3 0  9992
2 43017  97.6917 272.5653 0252521 339.8933  19.2466 14.80155898223960
FOX-1D (AO-92)          
1 43137U 18004AC  22012.14801972  .00003815  00000+0  14886-3 0  9996
2 43137  97.3877  88.9528 0008149 184.3215 175.7955 15.26497943222473
DIWATA-2B               
1 43678U 18084H   22012.12124985  .00000377  00000+0  43039-4 0  9997
2 43678  97.9477 143.8364 0011455  82.5501 277.7045 14.91877180174548
ES'HAIL 2               
1 43700U 18090A   22012.21204352  .00000156  00000+0  00000+0 0  9998
2 43700   0.0158 355.9635 0002127 326.8884 250.9617  1.00273100 11700
FOX-1CLIFF (AO-95)      
1 43770U 18099N   22012.14337121  .00001214  00000+0  11400-3 0  9993
2 43770  97.6430  82.4860 0015979  81.1501 279.1529 14.95663649169641
ITASAT 1                
1 43786U 18099AE  22011.82355290  .00000613  00000+0  59730-4 0  9992
2 43786  97.6454  82.9961 0016584  75.1571 285.1486 14.95913413169639
JY1SAT (JO-97)          
1 43803U 18099AX  22012.15023587  .00001131  00000+0  10504-3 0  9991
2 43803  97.6417  83.0519 0016537  73.9902 286.3140 14.96232961169690
UWE-4                   
1 43880U 18111E   22012.46047230  .00000559  00000+0  53185-4 0  9992
2 43880  97.6779 281.5127 0013046 120.1823 240.0693 14.97255481164356
NEXUS (FO-99)           
1 43937U 19003F   22011.53340030  .00004538  00000+0  17169-3 0  9999
2 43937  97.1529  51.2358 0022138 358.5680   1.5492 15.27203854166007
PSAT2 (NO-104)          
1 44354U 19036R   22011.50260334  .00020686  00000+0  24302-3 0  9993
2 44354  28.5243 171.4301 0291499  25.7576 335.7227 15.22631675140607
BRICSAT2 (NO-103)       
1 44355U 19036S   22012.48164404  .00090898 -44393-5  65969-3 0  9999
2 44355  28.5244  73.6834 0183090 184.2850 175.6182 15.52555124141661
JAISAT-1                
1 44419U 19038F   22011.66942189  .00003527  00000+0  19274-3 0  9996
2 44419  97.6166 341.0603 0019345 318.0679  41.9070 15.14815112139308
DUCHIFAT-3              
1 44854U 19089C   22012.12400187  .00001066  00000+0  90474-4 0  9992
2 44854  36.9665 306.2463 0007831  20.7519 339.3543 14.99961072114441
CAS-6 (TO-108)          
1 44881U 19093C   22012.23574111  .00000130  00000+0  23251-4 0  9998
2 44881  97.9083  93.6124 0014661 339.9643  20.1004 14.81538997111648
RS-44 & BREEZE-KM R/B   
1 44909U 19096E   22011.90455375  .00000018  00000+0  33616-4 0  9996
2 44909  82.5230 334.2997 0216893 326.0394  32.6978 12.79712067 95484
ORBITAL FACTORY 2 (OF-2)
1 45113U 19071C   22011.54884046  .00008509  00000+0  23030-3 0  9999
2 45113  51.6406 106.8383 0010864 328.1107  31.9218 15.38479928109176
HUSKYSAT-1 (HO-107)     
1 45119U 19071J   22012.54313808  .00006143  00000+0  17023-3 0  9996
2 45119  51.6406 101.4641 0010397 328.6786  31.3577 15.38296590109320
BY70-2                  
1 45857U 20042B   22012.18113690  .00001714  00000+0  24546-3 0  9999
2 45857  97.9696  90.6980 0009660 257.1265 102.8895 14.77852485 82361
SALSAT                  
1 46495U 20068K   22011.89291745  .00000735  00000+0  57864-4 0  9993
2 46495  97.7136 313.3963 0018631  88.0017 272.3343 15.03777396 70654
BY70-3                  
1 46839U 20079N   22012.09679662  .00006208  00000+0  17894-3 0  9997
2 46839  97.2194  86.8452 0006810 165.1673 280.5886 15.36054902 66207
RADFXSAT-2 (AO-109)     
1 47311U 21002C   22011.91942059  .00002423  00000+0  11356-3 0  9995
2 47311  60.6853 230.2532 0029260 154.6162 205.6370 15.22771218 54601
UVSQ-SAT                
1 47438U 21006AB  22012.44009028  .00001963  00000+0  11181-3 0  9992
2 47438  97.4617  74.6866 0014090  95.6747 264.6091 15.13899867 53666
DIY-1 (ARDUIQUBE)       
1 47963U 21022AH  22011.52452813  .00005680  00000+0  36209-3 0  9993
2 47963  97.5457 275.1742 0017854 318.3667  41.6202 15.08990421 43253
XW-3 (CAS-9)            
1 50466U 21131B   22012.22146493 -.00000048  00000+0 -11716-5 0  9991
2 50466  98.5968  89.4587 0003585 244.0770 116.0056 14.38435357  2457
